$$SOE
2460721.500000000, A.D. 2025-Feb-15 00:00:00.0000, 1.610162271421991E+08, -2.718529948424685E+08, 9.509964273082405E+06,
2460728.500000000, A.D. 2025-Feb-22 00:00:00.0000, 1.732770327650799E+08, -2.672114582020682E+08, 9.694074806029230E+06,
2460735.500000000, A.D. 2025-Mar-01 00:00:00.0000, 1.852778910560772E+08, -2.621689609329964E+08, 9.863638898275584E+06,
2460742.500000000, A.D. 2025-Mar-08 00:00:00.0000, 1.970073824383473E+08, -2.567423913083342E+08, 1.001875244682321E+07,
2460749.500000000, A.D. 2025-Mar-15 00:00:00.0000, 2.084551957490371E+08, -2.509486518354175E+08, 1.015953725635397E+07,
2460756.500000000, A.D. 2025-Mar-22 00:00:00.0000, 2.196120766124601E+08, -2.448045922803404E+08, 1.028613872508511E+07,
2460763.500000000, A.D. 2025-Mar-29 00:00:00.0000, 2.304697751780633E+08, -2.383269526304757E+08, 1.039872333889353E+07,
2460770.500000000, A.D. 2025-Apr-05 00:00:00.0000, 2.410209943695720E+08, -2.315323124703776E+08, 1.049747621080326E+07,
2460777.500000000, A.D. 2025-Apr-12 00:00:00.0000, 2.512593374306309E+08, -2.244370462333578E+08, 1.058259885813206E+07,
2460784.500000000, A.D. 2025-Apr-19 00:00:00.0000, 2.611792551856559E+08, -2.170572847431912E+08, 1.065430716633266E+07,
2460791.500000000, A.D. 2025-Apr-26 00:00:00.0000, 2.707759937961399E+08, -2.094088827638699E+08, 1.071282949922152E+07,
2460798.500000000, A.D. 2025-May-03 00:00:00.0000, 2.800455435456708E+08, -2.015073920479563E+08, 1.075840494583680E+07,
2460805.500000000, A.D. 2025-May-10 00:00:00.0000, 2.889845890208997E+08, -1.933680393897973E+08, 1.079128169939231E+07,
2460812.500000000, A.D. 2025-May-17 00:00:00.0000, 2.975904609905037E+08, -1.850057092520786E+08, 1.081171555741702E+07,
2460819.500000000, A.D. 2025-May-24 00:00:00.0000, 3.058610903566015E+08, -1.764349305643131E+08, 1.081996851712652E+07,
2460826.500000000, A.D. 2025-May-31 00:00:00.0000, 3.137949647440990E+08, -1.676698669476413E+08, 1.081630744719204E+07,
2460833.500000000, A.D. 2025-Jun-07 00:00:00.0000, 3.213910874317690E+08, -1.587243087560552E+08, 1.080100296576679E+07,
2460840.500000000, A.D. 2025-Jun-14 00:00:00.0000, 3.286489363226907E+08, -1.496116672286404E+08, 1.077432868135893E+07,
2460847.500000000, A.D. 2025-Jun-21 00:00:00.0000, 3.355684241910369E+08, -1.403449736781790E+08, 1.073656041030575E+07,
2460854.500000000, A.D. 2025-Jun-28 00:00:00.0000, 3.421498633226767E+08, -1.309368816292726E+08, 1.068797522030177E+07,
2460861.500000000, A.D. 2025-Jul-05 00:00:00.0000, 3.483939330007727E+08, -1.213996694544435E+08, 1.062885060775436E+07,
2460868.500000000, A.D. 2025-Jul-12 00:00:00.0000, 3.543016485961362E+08, -1.117452440441174E+08, 1.055946384500499E+07,
2460875.500000000, A.D. 2025-Jul-19 00:00:00.0000, 3.598743323919728E+08, -1.019851458405724E+08, 1.048009142631465E+07,
2460882.500000000, A.D. 2025-Jul-26 00:00:00.0000, 3.651135862870101E+08, -9.213055507396296E+07, 1.039100858314717E+07,
2460889.500000000, A.D. 2025-Aug-02 00:00:00.0000, 3.700212663703312E+08, -8.219229898754384E+07, 1.029248885976056E+07,
2460896.500000000, A.D. 2025-Aug-09 00:00:00.0000, 3.745994593116570E+08, -7.218085989985517E+07, 1.018480374117786E+07,
2460903.500000000, A.D. 2025-Aug-16 00:00:00.0000, 3.788504605570945E+08, -6.210638402050173E+07, 1.006822231649108E+07,
2460910.500000000, A.D. 2025-Aug-23 00:00:00.0000, 3.827767545301890E+08, -5.197869087310010E+07, 9.943010946873752E+06,
2460917.500000000, A.D. 2025-Aug-30 00:00:00.0000, 3.863809970721710E+08, -4.180728249430990E+07, 9.809432961557364E+06,
2460924.500000000, A.D. 2025-Sep-06 00:00:00.0000, 3.896659986134785E+08, -3.160135130489293E+07, 9.667748589811606E+06,
2460931.500000000, A.D. 2025-Sep-13 00:00:00.0000, 3.926347063205101E+08, -2.136978904951723E+07, 9.518215075952495E+06,
2460938.500000000, A.D. 2025-Sep-20 00:00:00.0000, 3.952901884017056E+08, -1.112119837639012E+07, 9.361086538832974E+06,
2460945.500000000, A.D. 2025-Sep-27 00:00:00.0000, 3.976356215432377E+08, -8.639038784161001E+05, 9.196613729390468E+06,
2460952.500000000, A.D. 2025-Oct-04 00:00:00.0000, 3.996742793764970E+08, 9.394038001575978E+06, 9.025043912457939E+06,
2460959.500000000, A.D. 2025-Oct-11 00:00:00.0000, 4.014095215283646E+08, 1.964482930752840E+07, 8.846620827550221E+06,
2460966.500000000, A.D. 2025-Oct-18 00:00:00.0000, 4.028447834671999E+08, 2.988092091526824E+07, 8.661584677866349E+06,
2460973.500000000, A.D. 2025-Oct-25 00:00:00.0000, 4.039835672176798E+08, 4.009500293061811E+07, 8.470172133460011E+06,
2460980.500000000, A.D. 2025-Nov-01 00:00:00.0000, 4.048294329213920E+08, 5.027999518297900E+07, 8.272616344216298E+06,
2460987.500000000, A.D. 2025-Nov-08 00:00:00.0000, 4.053859912186773E+08, 6.042903780429022E+07, 8.069146954999473E+06,
2460994.500000000, A.D. 2025-Nov-15 00:00:00.0000, 4.056568965437180E+08, 7.053548185108618E+07, 7.859990102771305E+06,
2461001.500000000, A.D. 2025-Nov-22 00:00:00.0000, 4.056458416815687E+08, 8.059288020142242E+07, 7.645368374780562E+06,
2461008.500000000, A.D. 2025-Nov-29 00:00:00.0000, 4.053565533806801E+08, 9.059497987130259E+07, 7.425500832772952E+06,
2461015.500000000, A.D. 2025-Dec-06 00:00:00.0000, 4.047927866963344E+08, 1.005357156245400E+08, 7.200603299911737E+06,
2461022.500000000, A.D. 2025-Dec-13 00:00:00.0000, 4.039583184594300E+08, 1.104092015110054E+08, 6.970888594293483E+06,
2461029.500000000, A.D. 2025-Dec-20 00:00:00.0000, 4.028569433233937E+08, 1.202097213567801E+08, 6.736566470820345E+06,
2461036.500000000, A.D. 2025-Dec-27 00:00:00.0000, 4.014924712754182E+08, 1.299317207983922E+08, 6.497843580527984E+06,
2461043.500000000, A.D. 2026-Jan-03 00:00:00.0000, 3.998687251177988E+08, 1.395698002461644E+08, 6.254923530192286E+06,
2461050.500000000, A.D. 2026-Jan-10 00:00:00.0000, 3.979895379976839E+08, 1.491187080968036E+08, 6.008006976085015E+06,
2461057.500000000, A.D. 2026-Jan-17 00:00:00.0000, 3.958587511886926E+08, 1.585733341015429E+08, 5.757291722551361E+06,
2461064.500000000, A.D. 2026-Jan-24 00:00:00.0000, 3.934802121754261E+08, 1.679287029096539E+08, 5.502972819694087E+06,
2461071.500000000, A.D. 2026-Jan-31 00:00:00.0000, 3.908577730396514E+08, 1.771799677765916E+08, 5.245242657079116E+06,
2461078.500000000, A.D. 2026-Feb-07 00:00:00.0000, 3.879952891873755E+08, 1.863224043757717E+08, 4.984291042898461E+06,
2461085.500000000, A.D. 2026-Feb-14 00:00:00.0000, 3.848966186501277E+08, 1.953514046943897E+08, 4.720305243909836E+06,
2461092.500000000, A.D. 2026-Feb-21 00:00:00.0000, 3.815656223297015E+08, 2.042624715842841E+08, 4.453469997408167E+06,
2461099.500000000, A.D. 2026-Feb-28 00:00:00.0000, 3.780061640822111E+08, 2.130512151143762E+08, 4.183967688646570E+06,
2461106.500000000, A.D. 2026-Mar-07 00:00:00.0000, 3.742221085662464E+08, 2.217133487702405E+08, 3.911978723272011E+06,
2461113.500000000, A.D. 2026-Mar-14 00:00:00.0000, 3.702173196194445E+08, 2.302446831618432E+08, 3.637681649430349E+06,
2461120.500000000, A.D. 2026-Mar-21 00:00:00.0000, 3.659956609317954E+08, 2.386411201275363E+08, 3.361253102259621E+06,
2461127.500000000, A.D. 2026-Mar-28 00:00:00.0000, 3.615609969896413E+08, 2.468986482554822E+08, 3.082867838924110E+06,
2461134.500000000, A.D. 2026-Apr-04 00:00:00.0000, 3.569171936731454E+08, 2.550133388525723E+08, 2.802698840847850E+06,
2461141.500000000, A.D. 2026-Apr-11 00:00:00.0000, 3.520681187714506E+08, 2.629813419978111E+08, 2.520917428986773E+06,
2461148.500000000, A.D. 2026-Apr-18 00:00:00.0000, 3.470176425681146E+08, 2.707988826700431E+08, 2.237693377361968E+06,
2461155.500000000, A.D. 2026-Apr-25 00:00:00.0000, 3.417696385374693E+08, 2.784622569601025E+08, 1.953195022112921E+06,
2461162.500000000, A.D. 2026-May-02 00:00:00.0000, 3.363279841775981E+08, 2.859678283322389E+08, 1.667589360964894E+06,
2461169.500000000, A.D. 2026-May-09 00:00:00.0000, 3.306965620994270E+08, 2.933120238630577E+08, 1.381042126328543E+06,
2461176.500000000, A.D. 2026-May-16 00:00:00.0000, 3.248792617452816E+08, 3.004913305911993E+08, 1.093717808654577E+06,
2461183.500000000, A.D. 2026-May-23 00:00:00.0000, 3.188799817843674E+08, 3.075022929942378E+08, 8.057797086551934E+05,
2461190.500000000, A.D. 2026-May-30 00:00:00.0000, 3.127026311000787E+08, 3.143415119060506E+08, 5.173902350530028E+05,
2461197.500000000, A.D. 2026-Jun-06 00:00:00.0000, 3.063511280463868E+08, 3.210056415992607E+08, 2.287112097141743E+05,
2461204.500000000, A.D. 2026-Jun-13 00:00:00.0000, 2.998294016390151E+08, 3.274913852304541E+08, -6.009613995464146E+04,
2461211.500000000, A.D. 2026-Jun-20 00:00:00.0000, 2.931413941785483E+08, 3.337954915696061E+08, -3.488712167073637E+05,
2461218.500000000, A.D. 2026-Jun-27 00:00:00.0000, 2.862910636037909E+08, 3.399147526701924E+08, -6.374539894870222E+05,
2461225.500000000, A.D. 2026-Jul-04 00:00:00.0000, 2.792823855732557E+08, 3.458460017029598E+08, -9.256848932875395E+05,
2461232.500000000, A.D. 2026-Jul-11 00:00:00.0000, 2.721193555276551E+08, 3.515861108197147E+08, -1.213404727148458E+06,
2461239.500000000, A.D. 2026-Jul-18 00:00:00.0000, 2.648059908254947E+08, 3.571319890713683E+08, -1.500454556919217E+06,
2461246.500000000, A.D. 2026-Jul-25 00:00:00.0000, 2.573463329759062E+08, 3.624805803817971E+08, -1.786675625012413E+06,
2461253.500000000, A.D. 2026-Aug-01 00:00:00.0000, 2.497444500167892E+08, 3.676288615287155E+08, -2.071909275643066E+06,
2461260.500000000, A.D. 2026-Aug-08 00:00:00.0000, 2.420044392535176E+08, 3.725738400957619E+08, -2.355996918291196E+06,
2461267.500000000, A.D. 2026-Aug-15 00:00:00.0000, 2.341304307745576E+08, 3.773125528470709E+08, -2.638780030773133E+06,
2461274.500000000, A.D. 2026-Aug-22 00:00:00.0000, 2.261265909849169E+08, 3.818420657454352E+08, -2.920100032536715E+06,
2461281.500000000, A.D. 2026-Aug-29 00:00:00.0000, 2.179971238677295E+08, 3.861594742398068E+08, -3.199797930337757E+06,
2461288.500000000, A.D. 2026-Sep-05 00:00:00.0000, 2.097462721070827E+08, 3.902619009575224E+08, -3.477714166018277E+06,
$$EOE